{"fetched_at":"2026-03-30T09:12:31Z","count":15922,"tles":[{"name":"STARLINK-11372 [DTC]","line1":"1 61576U 24187C   26087.74020697  .00001185  00000+0  14641-4 0  9999","line2":"2 61576  53.1609 202.2493 0001643 106.2606 253.8593 15.69715296 83746","category":"Starlink"}]}